{"type": "FeatureCollection", "features": [ {"type": "Feature", "properties": {"norad_id": 40534, "name": "GPS BIIF-9  (PRN 26)", "group": "gps-ops", "lat": 33.12215340759305, "lon": -119.34619775103484, "alt_km": 19893.29380208621, "timestamp": "2025-12-24T14:43:29.260701+00:00", "meta": {"OBJECT_NAME": "GPS BIIF-9  (PRN 26)", "OBJECT_ID": "2015-013A", "EPOCH": "2025-12-24T01:21:24.633504", "MEAN_MOTION": 2.00561873, "ECCENTRICITY": 0.01074729, "INCLINATION": 53.1962, "RA_OF_ASC_NODE": 211.4215, "ARG_OF_PERICENTER": 38.7568, "MEAN_ANOMALY": 322.085, "EPHEMERIS_TYPE": 0, "CLASSIFICATION_TYPE": "U", "NORAD_CAT_ID": 40534, "ELEMENT_SET_NO": 999, "REV_AT_EPOCH": 7831, "BSTAR": 0, "MEAN_MOTION_DOT": 7.5e-07, "MEAN_MOTION_DDOT": 0}, "tle": {"line1": "1 40534U 15013A   25358.05653511  .00000075  00000+0  00000+0 0  9995", "line2": "2 40534  53.1962 211.4215 0107472  38.7568 322.0850  2.00561873 78319"}}, "geometry": {"type": "Point", "coordinates": [-119.34619775103484, 33.12215340759305]}}, {"type": "Feature", "properties": {"norad_id": 40730, "name": "GPS BIIF-10 (PRN 08)", "group": "gps-ops", "lat": -51.48654835586547, "lon": -150.9873658779195, "alt_km": 20245.855692174162, "timestamp": "2025-12-24T14:43:29.260713+00:00", "meta": {"OBJECT_NAME": "GPS BIIF-10 (PRN 08)", "OBJECT_ID": "2015-033A", "EPOCH": "2025-12-23T05:17:42.404352", "MEAN_MOTION": 2.00565183, "ECCENTRICITY": 0.01115799, "INCLINATION": 54.1216, "RA_OF_ASC_NODE": 274.3416, "ARG_OF_PERICENTER": 27.0753, "MEAN_ANOMALY": 333.5521, "EPHEMERIS_TYPE": 0, "CLASSIFICATION_TYPE": "U", "NORAD_CAT_ID": 40730, "ELEMENT_SET_NO": 999, "REV_AT_EPOCH": 7646, "BSTAR": 0, "MEAN_MOTION_DOT": -1.3e-07, "MEAN_MOTION_DDOT": 0}, "tle": {"line1": "1 40730U 15033A   25357.22062968 -.00000013  00000+0  00000+0 0  9996", "line2": "2 40730  54.1216 274.3416 0111579  27.0753 333.5521  2.00565183 76465"}}, "geometry": {"type": "Point", "coordinates": [-150.9873658779195, -51.48654835586547]}}, {"type": "Feature", "properties": {"norad_id": 41019, "name": "GPS BIIF-11 (PRN 10)", "group": "gps-ops", "lat": -47.770048475831395, "lon": -96.3903231426707, "alt_km": 19897.94403115024, "timestamp": "2025-12-24T14:43:29.260724+00:00", "meta": {"OBJECT_NAME": "GPS BIIF-11 (PRN 10)", "OBJECT_ID": "2015-062A", "EPOCH": "2025-12-23T18:41:09.835584", "MEAN_MOTION": 2.00567099, "ECCENTRICITY": 0.01110889, "INCLINATION": 56.8401, "RA_OF_ASC_NODE": 37.5754, "ARG_OF_PERICENTER": 230.2332, "MEAN_ANOMALY": 128.8479, "EPHEMERIS_TYPE": 0, "CLASSIFICATION_TYPE": "U", "NORAD_CAT_ID": 41019, "ELEMENT_SET_NO": 999, "REV_AT_EPOCH": 7431, "BSTAR": 0, "MEAN_MOTION_DOT": -4.7e-07, "MEAN_MOTION_DDOT": 0}, "tle": {"line1": "1 41019U 15062A   25357.77858606 -.00000047  00000+0  00000+0 0  9998", "line2": "2 41019  56.8401  37.5754 0111088 230.2332 128.8479  2.00567099 74318"}}, "geometry": {"type": "Point", "coordinates": [-96.3903231426707, -47.770048475831395]}}, {"type": "Feature", "properties": {"norad_id": 41328, "name": "GPS BIIF-12 (PRN 32)", "group": "gps-ops", "lat": -1.0174527410732364, "lon": -82.9080113391339, "alt_km": 20067.81946923706, "timestamp": "2025-12-24T14:43:29.260736+00:00", "meta": {"OBJECT_NAME": "GPS BIIF-12 (PRN 32)", "OBJECT_ID": "2016-007A", "EPOCH": "2025-12-23T20:40:23.632032", "MEAN_MOTION": 2.00560126, "ECCENTRICITY": 0.00927286, "INCLINATION": 55.4122, "RA_OF_ASC_NODE": 96.4156, "ARG_OF_PERICENTER": 243.8623, "MEAN_ANOMALY": 115.1928, "EPHEMERIS_TYPE": 0, "CLASSIFICATION_TYPE": "U", "NORAD_CAT_ID": 41328, "ELEMENT_SET_NO": 999, "REV_AT_EPOCH": 7232, "BSTAR": 0, "MEAN_MOTION_DOT": 1.1e-07, "MEAN_MOTION_DDOT": 0}, "tle": {"line1": "1 41328U 16007A   25357.86138463  .00000011  00000+0  00000+0 0  9993", "line2": "2 41328  55.4122  96.4156 0092728 243.8623 115.1928  2.00560126 72329"}}, "geometry": {"type": "Point", "coordinates": [-82.9080113391339, -1.0174527410732364]}}, {"type": "Feature", "properties": {"norad_id": 43873, "name": "GPS BIII-1  (PRN 04)", "group": "gps-ops", "lat": 53.219458173009436, "lon": 165.45184468401848, "alt_km": 20225.66380382278, "timestamp": "2025-12-24T14:43:29.260747+00:00", "meta": {"OBJECT_NAME": "GPS BIII-1  (PRN 04)", "OBJECT_ID": "2018-109A", "EPOCH": "2025-12-24T00:11:38.701248", "MEAN_MOTION": 2.00553951, "ECCENTRICITY": 0.00376154, "INCLINATION": 55.5728, "RA_OF_ASC_NODE": 99.1026, "ARG_OF_PERICENTER": 195.5466, "MEAN_ANOMALY": 163.7899, "EPHEMERIS_TYPE": 0, "CLASSIFICATION_TYPE": "U", "NORAD_CAT_ID": 43873, "ELEMENT_SET_NO": 999, "REV_AT_EPOCH": 5155, "BSTAR": 0, "MEAN_MOTION_DOT": 1.5e-07, "MEAN_MOTION_DDOT": 0}, "tle": {"line1": "1 43873U 18109A   25358.00808682  .00000015  00000+0  00000+0 0  9993", "line2": "2 43873  55.5728  99.1026 0037615 195.5466 163.7899  2.00553951 51553"}}, "geometry": {"type": "Point", "coordinates": [165.45184468401848, 53.219458173009436]}}, {"type": "Feature", "properties": {"norad_id": 44506, "name": "GPS BIII-2  (PRN 18)", "group": "gps-ops", "lat": -20.908624732188198, "lon": -37.03285482755895, "alt_km": 20294.169023902316, "timestamp": "2025-12-24T14:43:29.260759+00:00", "meta": {"OBJECT_NAME": "GPS BIII-2  (PRN 18)", "OBJECT_ID": "2019-056A", "EPOCH": "2025-12-23T09:23:28.795200", "MEAN_MOTION": 2.0056658, "ECCENTRICITY": 0.00577459, "INCLINATION": 55.7176, "RA_OF_ASC_NODE": 338.1305, "ARG_OF_PERICENTER": 198.6012, "MEAN_ANOMALY": 332.8304, "EPHEMERIS_TYPE": 0, "CLASSIFICATION_TYPE": "U", "NORAD_CAT_ID": 44506, "ELEMENT_SET_NO": 999, "REV_AT_EPOCH": 4654, "BSTAR": 0, "MEAN_MOTION_DOT": -6.4e-07, "MEAN_MOTION_DDOT": 0}, "tle": {"line1": "1 44506U 19056A   25357.39130550 -.00000064  00000+0  00000+0 0  9997", "line2": "2 44506  55.7176 338.1305 0057745 198.6012 332.8304  2.00566580 46544"}}, "geometry": {"type": "Point", "coordinates": [-37.03285482755895, -20.908624732188198]}}, {"type": "Feature", "properties": {"norad_id": 45854, "name": "GPS BIII-3  (PRN 23)", "group": "gps-ops", "lat": -55.62109806745354, "lon": -39.19854808334761, "alt_km": 20144.548659444044, "timestamp": "2025-12-24T14:43:29.260770+00:00", "meta": {"OBJECT_NAME": "GPS BIII-3  (PRN 23)", "OBJECT_ID": "2020-041A", "EPOCH": "2025-12-24T07:36:15.586848", "MEAN_MOTION": 2.00561688, "ECCENTRICITY": 0.00606528, "INCLINATION": 56.5546, "RA_OF_ASC_NODE": 35.7353, "ARG_OF_PERICENTER": 203.7393, "MEAN_ANOMALY": 219.8521, "EPHEMERIS_TYPE": 0, "CLASSIFICATION_TYPE": "U", "NORAD_CAT_ID": 45854, "ELEMENT_SET_NO": 999, "REV_AT_EPOCH": 4053, "BSTAR": 0, "MEAN_MOTION_DOT": -4.9e-07, "MEAN_MOTION_DDOT": 0}, "tle": {"line1": "1 45854U 20041A   25358.31684707 -.00000049  00000+0  00000+0 0  9994", "line2": "2 45854  56.5546  35.7353 0060652 203.7393 219.8521  2.00561688 40537"}}, "geometry": {"type": "Point", "coordinates": [-39.19854808334761, -55.62109806745354]}}, {"type": "Feature", "properties": {"norad_id": 46826, "name": "GPS BIII-4  (PRN 14)", "group": "gps-ops", "lat": -49.312452870429354, "lon": 95.56089858756552, "alt_km": 20066.957296638604, "timestamp": "2025-12-24T14:43:29.260782+00:00", "meta": {"OBJECT_NAME": "GPS BIII-4  (PRN 14)", "OBJECT_ID": "2020-078A", "EPOCH": "2025-12-16T01:06:13.902336", "MEAN_MOTION": 2.00566891, "ECCENTRICITY": 0.00647535, "INCLINATION": 54.0144, "RA_OF_ASC_NODE": 218.2068, "ARG_OF_PERICENTER": 203.3802, "MEAN_ANOMALY": 339.3962, "EPHEMERIS_TYPE": 0, "CLASSIFICATION_TYPE": "U", "NORAD_CAT_ID": 46826, "ELEMENT_SET_NO": 999, "REV_AT_EPOCH": 3783, "BSTAR": 0, "MEAN_MOTION_DOT": 6.7e-07, "MEAN_MOTION_DDOT": 0}, "tle": {"line1": "1 46826U 20078A   25350.04599424  .00000067  00000+0  00000+0 0  9996", "line2": "2 46826  54.0144 218.2068 0064753 203.3802 339.3962  2.00566891 37839"}}, "geometry": {"type": "Point", "coordinates": [95.56089858756552, -49.312452870429354]}}, {"type": "Feature", "properties": {"norad_id": 48859, "name": "GPS BIII-5  (PRN 11)", "group": "gps-ops", "lat": 52.05980716162622, "lon": 42.348644750532145, "alt_km": 20238.57153954007, "timestamp": "2025-12-24T14:43:29.260798+00:00", "meta": {"OBJECT_NAME": "GPS BIII-5  (PRN 11)", "OBJECT_ID": "2021-054A", "EPOCH": "2025-12-08T04:14:32.423424", "MEAN_MOTION": 2.00553627, "ECCENTRICITY": 0.0024678, "INCLINATION": 55.2581, "RA_OF_ASC_NODE": 340.1367, "ARG_OF_PERICENTER": 233.3993, "MEAN_ANOMALY": 212.8594, "EPHEMERIS_TYPE": 0, "CLASSIFICATION_TYPE": "U", "NORAD_CAT_ID": 48859, "ELEMENT_SET_NO": 999, "REV_AT_EPOCH": 3292, "BSTAR": 0, "MEAN_MOTION_DOT": -8.6e-07, "MEAN_MOTION_DDOT": 0}, "tle": {"line1": "1 48859U 21054A   25342.17676416 -.00000086  00000+0  00000+0 0  9993", "line2": "2 48859  55.2581 340.1367 0024678 233.3993 212.8594  2.00553627 32922"}}, "geometry": {"type": "Point", "coordinates": [42.348644750532145, 52.05980716162622]}}, {"type": "Feature", "properties": {"norad_id": 55268, "name": "GPS BIII-6  (PRN 28)", "group": "gps-ops", "lat": 47.25449771944129, "lon": -73.66272599543345, "alt_km": 20182.345260747938, "timestamp": "2025-12-24T14:43:29.260821+00:00", "meta": {"OBJECT_NAME": "GPS BIII-6  (PRN 28)", "OBJECT_ID": "2023-009A", "EPOCH": "2025-12-22T10:59:58.065216", "MEAN_MOTION": 2.00554901, "ECCENTRICITY": 0.00037047, "INCLINATION": 55.1065, "RA_OF_ASC_NODE": 155.4638, "ARG_OF_PERICENTER": 355.7912, "MEAN_ANOMALY": 4.4255, "EPHEMERIS_TYPE": 0, "CLASSIFICATION_TYPE": "U", "NORAD_CAT_ID": 55268, "ELEMENT_SET_NO": 999, "REV_AT_EPOCH": 2170, "BSTAR": 0, "MEAN_MOTION_DOT": 7.4e-07, "MEAN_MOTION_DDOT": 0}, "tle": {"line1": "1 55268U 23009A   25356.45831094  .00000074  00000+0  00000+0 0  9994", "line2": "2 55268  55.1065 155.4638 0003704 355.7912   4.4255  2.00554901 21704"}}, "geometry": {"type": "Point", "coordinates": [-73.66272599543345, 47.25449771944129]}}]}